0 METOP-B
1 38771U 12049A   15015.25004086  .00000119  00000-0  74275-4 0  9999
2 38771 098.7192 077.2548 0000285 204.8034 196.9922 14.21485279120692
0 NOAA 19
1 33591U 09005A   15015.54556132  .00000231  00000-0  15091-3 0  9993
2 33591 098.9725 325.2192 0013230 238.1153 244.1365 14.11855315305950
0 METOP-A
1 29499U 06044A   15016.07183113  .00000079  00000-0  56092-4 0  9996
2 29499 098.6970 077.8540 0000858 166.6852 309.3035 14.21473257427675
0 NOAA 19
1 33591U 09005A   15016.52641249  .00000141  00000-0  10200-3 0  9993
2 33591 098.9727 326.2001 0013267 235.1827 189.6506 14.11856727306091
0 METOP-B
1 38771U 12049A   15016.74106538  .00000108  00000-0  69387-4 0  9995
2 38771 098.7188 078.7277 0000367 202.9083 264.6741 14.21485710120902
0 METOP-A
1 29499U 06044A   15017.19415811  .00000107  00000-0  68685-4 0  9996
2 29499 098.6967 078.9598 0000893 166.6006 289.4335 14.21473919427830
0 NOAA 19
1 33591U 09005A   15017.59982663  .00000064  00000-0  59588-4 0  9996
2 33591 098.9730 327.2736 0013304 232.0036 245.6234 14.11857762306249
0 METOP-B
1 38771U 12049A   15017.80250032  .00000084  00000-0  58252-4 0  9994
2 38771 098.7185 079.7762 0000427 202.9690 293.2822 14.21485933121052
0 NOAA 19
1 33591U 09005A   15018.52382345  .00000060  00000-0  57627-4 0  9999
2 33591 098.9731 328.1977 0013319 229.2649 262.1422 14.11857809306370
0 NOAA 19
1 33591U 09005A   15019.44762914  .00000130  00000-0  95820-4 0  9990
2 33591 098.9732 329.1217 0013360 226.5578 277.6624 14.11857511306506
0 METOP-A
1 29499U 06044A   15019.67107720  .00000083  00000-0  57828-4 0  9998
2 29499 098.6961 081.4001 0000999 163.8530 000.1817 14.21474498428185
0 METOP-B
1 38771U 12049A   15019.69781014  .00000065  00000-0  49998-4 0  9998
2 38771 098.7181 081.6483 0000532 198.2093 271.5330 14.21486847121329
0 NOAA 19
1 33591U 09005A   15020.50860861  .00000179  00000-0  12279-3 0  9998
2 33591 098.9732 330.1829 0013391 223.3696 270.4908 14.11857115306659
0 METOP-A
1 29499U 06044A   15020.84616501  .00000054  00000-0  44496-4 0  9996
2 29499 098.6959 082.5578 0001075 161.7236 252.2036 14.21474885428351
0 METOP-B
1 38771U 12049A   15020.88051904  .00000039  00000-0  38048-4 0  9994
2 38771 098.7179 082.8164 0000595 192.9630 205.7049 14.21487065121499
0 NOAA 19
1 33591U 09005A   15021.21121241  .00000274  00000-0  17451-3 0  9992
2 33591 098.9732 330.8857 0013407 221.2563 241.7416 14.11856859306755
0 METOP-A
1 29499U 06044A   15021.98776830  .00000058  00000-0  46514-4 0  9991
2 29499 098.6959 083.6825 0001132 160.3429 332.2241 14.21475357428511
0 METOP-B
1 38771U 12049A   15022.01250255  .00000075  00000-0  54198-4 0  9995
2 38771 098.7178 083.9344 0000654 189.6079 238.5531 14.21487264121655
0 NOAA 19
1 33591U 09005A   15022.49332190  .00000303  00000-0  19034-3 0  9992
2 33591 098.9731 332.1681 0013473 217.4758 278.4709 14.11857561306933
0 METOP-A
1 29499U 06044A   15023.04105594  .00000058  00000-0  46689-4 0  9996
2 29499 098.6958 084.7202 0001144 160.7639 318.7621 14.21475601428660
0 METOP-B
1 38771U 12049A   15023.13570093  .00000077  00000-0  55148-4 0  9992
2 38771 098.7177 085.0437 0000723 187.7425 224.9802 14.21487622121817
0 NOAA 19
1 33591U 09005A   15023.54002193  .00000264  00000-0  16915-3 0  9997
2 33591 098.9731 333.2151 0013526 214.3779 198.6673 14.11858437307088
0 METOP-A
1 29499U 06044A   15024.16277348  .00000072  00000-0  52687-4 0  9998
2 29499 098.6957 085.8252 0001199 159.4026 297.0636 14.21475656428824
0 METOP-B
1 38771U 12049A   15024.26042429  .00000056  00000-0  45478-4 0  9996
2 38771 098.7176 086.1545 0000781 186.2091 218.8756 14.21487909121970
0 NOAA 19
1 33591U 09005A   15024.53230043  .00000200  00000-0  13390-3 0  9998
2 33591 098.9732 334.2075 0013582 211.5184 202.1712 14.11859426307226
0 METOP-A
1 29499U 06044A   15025.50348384  .00000084  00000-0  58409-4 0  9997
2 29499 098.6956 087.1460 0001282 157.0622 316.3658 14.21475937429011
0 NOAA 19
1 33591U 09005A   15025.52388843  .00000129  00000-0  95067-4 0  9992
2 33591 098.9734 335.1993 0013633 208.6856 202.1421 14.11860814307362
0 METOP-B
1 38771U 12049A   15026.02348653  .00000059  00000-0  46933-4 0  9990
2 38771 098.7174 087.8958 0000863 184.2969 237.9190 14.21488084122225
0 NOAA 19
1 33591U 09005A   15026.53177054  .00000037  00000-0  44749-4 0  9993
2 33591 098.9735 336.2073 0013675 205.7334 285.0100 14.11861930307509
0 METOP-A
1 29499U 06044A   15026.77677630  .00000062  00000-0  48108-4 0  9997
2 29499 098.6953 088.4004 0001306 156.8204 348.7665 14.21476421429191
0 METOP-B
1 38771U 12049A   15027.07841789  .00000094  00000-0  63003-4 0  9990
2 38771 098.7172 088.9376 0000917 182.7380 234.8945 14.21488401122372
0 NOAA 19
1 33591U 09005A   15027.52434501  .00000065  00000-0  60217-4 0  9995
2 33591 098.9738 337.2000 0013722 202.9393 289.9646 14.11862452307643
0 METOP-A
1 29499U 06044A   15028.03866010  .00000080  00000-0  56551-4 0  9991
2 29499 098.6950 089.6435 0001344 155.2583 324.1423 14.21476671429371
0 METOP-B
1 38771U 12049A   15028.20638417  .00000093  00000-0  62768-4 0  9994
2 38771 098.7169 090.0516 0000985 180.7253 245.8580 14.21488925122536
0 NOAA 19
1 33591U 09005A   15028.51506083  .00000120  00000-0  90258-4 0  9990
2 33591 098.9741 338.1909 0013753 200.0347 285.5929 14.11862437307781
0 METOP-A
1 29499U 06044A   15029.22708477  .00000114  00000-0  71983-4 0  9999
2 29499 098.6947 090.8142 0001408 152.9119 284.6011 14.21477177429540
0 NOAA 19
1 33591U 09005A   15029.50883803  .00000262  00000-0  16783-3 0  9995
2 33591 098.9744 339.1848 0013798 197.1633 296.7421 14.11862167307927
0 METOP-B
1 38771U 12049A   15029.70227841  .00000124  00000-0  76803-4 0  9995
2 38771 098.7165 091.5290 0001055 178.0556 339.2385 14.21489532122741
0 NOAA 19
1 33591U 09005A   15029.71406448  .00000271  00000-0  17278-3 0  9994
2 33591 098.9745 339.3901 0013813 196.5941 259.8391 14.11862074307959
0 METOP-A
1 29499U 06044A   15030.50118588  .00000135  00000-0  81855-4 0  9992
2 29499 098.6943 092.0693 0001456 151.7988 322.0141 14.21477787429723
0 METOP-B
1 38771U 12049A   15031.09044669  .00000118  00000-0  74074-4 0  9996
2 38771 098.7161 092.8999 0001119 176.2253 240.8235 14.21489895122947
0 NOAA 19
1 33591U 09005A   15031.13621567  .00000341  00000-0  21130-3 0  9994
2 33591 098.9749 340.8126 0013889 192.5144 288.2878 14.11862539308158
0 NOAA 19
1 33591U 09005A   15031.49355013  .00000343  00000-0  21225-3 0  9990
2 33591 098.9750 341.1701 0013913 191.5594 304.4619 14.11862557308209
0 METOP-A
1 29499U 06044A   15031.69712535  .00000115  00000-0  72623-4 0  9996
2 29499 098.6939 093.2474 0001492 150.6738 319.6882 14.21478454429893
